{"type": "FeatureCollection", "features": [ {"type": "Feature", "properties": {"norad_id": 31255, "name": "FENGYUN 1C DEB", "group": "fengyun-1c-debris", "lat": -3.3004095432882252, "lon": 178.33432250669202, "alt_km": 736.9168775809358, "timestamp": "2025-12-26T05:31:12.788747+00:00", "meta": {"OBJECT_NAME": "FENGYUN 1C DEB", "OBJECT_ID": "1999-025BMM", "EPOCH": "2025-12-23T11:06:19.382976", "MEAN_MOTION": 14.09743921, "ECCENTRICITY": 0.02703562, "INCLINATION": 99.3085, "RA_OF_ASC_NODE": 174.9282, "ARG_OF_PERICENTER": 313.5957, "MEAN_ANOMALY": 44.3057, "EPHEMERIS_TYPE": 0, "CLASSIFICATION_TYPE": "U", "NORAD_CAT_ID": 31255, "ELEMENT_SET_NO": 999, "REV_AT_EPOCH": 96952, "BSTAR": 0.00028400087, "MEAN_MOTION_DOT": 6.46e-06, "MEAN_MOTION_DDOT": 0}, "tle": {"line1": "1 31255U 99025BMM 25357.46272434  .00000646  00000+0  28400-3 0  9997", "line2": "2 31255  99.3085 174.9282 0270356 313.5957  44.3057 14.09743921969525"}}, "geometry": {"type": "Point", "coordinates": [178.33432250669202, -3.3004095432882252]}}, {"type": "Feature", "properties": {"norad_id": 31256, "name": "FENGYUN 1C DEB", "group": "fengyun-1c-debris", "lat": -81.0904554677005, "lon": -75.69276735379445, "alt_km": 1104.1445696329556, "timestamp": "2025-12-26T05:31:12.788757+00:00", "meta": {"OBJECT_NAME": "FENGYUN 1C DEB", "OBJECT_ID": "1999-025BMN", "EPOCH": "2025-12-25T12:50:24.048384", "MEAN_MOTION": 14.03412598, "ECCENTRICITY": 0.0308502, "INCLINATION": 98.6797, "RA_OF_ASC_NODE": 206.6326, "ARG_OF_PERICENTER": 77.9872, "MEAN_ANOMALY": 285.5692, "EPHEMERIS_TYPE": 0, "CLASSIFICATION_TYPE": "U", "NORAD_CAT_ID": 31256, "ELEMENT_SET_NO": 999, "REV_AT_EPOCH": 65161, "BSTAR": 0.0021841, "MEAN_MOTION_DOT": 5.174e-05, "MEAN_MOTION_DDOT": 0}, "tle": {"line1": "1 31256U 99025BMN 25359.53500056  .00005174  00000+0  21841-2 0  9994", "line2": "2 31256  98.6797 206.6326 0308502  77.9872 285.5692 14.03412598651611"}}, "geometry": {"type": "Point", "coordinates": [-75.69276735379445, -81.0904554677005]}}, {"type": "Feature", "properties": {"norad_id": 31258, "name": "FENGYUN 1C DEB", "group": "fengyun-1c-debris", "lat": 35.48432884147178, "lon": 144.92933623836723, "alt_km": 511.63617474961484, "timestamp": "2025-12-26T05:31:12.788767+00:00", "meta": {"OBJECT_NAME": "FENGYUN 1C DEB", "OBJECT_ID": "1999-025BMQ", "EPOCH": "2025-12-24T09:10:00.892992", "MEAN_MOTION": 15.16490978, "ECCENTRICITY": 0.00080756, "INCLINATION": 98.8459, "RA_OF_ASC_NODE": 149.1496, "ARG_OF_PERICENTER": 313.0592, "MEAN_ANOMALY": 77.2455, "EPHEMERIS_TYPE": 0, "CLASSIFICATION_TYPE": "U", "NORAD_CAT_ID": 31258, "ELEMENT_SET_NO": 999, "REV_AT_EPOCH": 97287, "BSTAR": 0.010968771, "MEAN_MOTION_DOT": 0.00220131, "MEAN_MOTION_DDOT": 0}, "tle": {"line1": "1 31258U 99025BMQ 25358.38195478  .00220131  00000+0  10969-1 0  9996", "line2": "2 31258  98.8459 149.1496 0008075 313.0592  77.2455 15.16490978972874"}}, "geometry": {"type": "Point", "coordinates": [144.92933623836723, 35.48432884147178]}}, {"type": "Feature", "properties": {"norad_id": 31259, "name": "FENGYUN 1C DEB", "group": "fengyun-1c-debris", "lat": 37.91178074323885, "lon": -93.34561624931384, "alt_km": 793.7458733825206, "timestamp": "2025-12-26T05:31:12.788777+00:00", "meta": {"OBJECT_NAME": "FENGYUN 1C DEB", "OBJECT_ID": "1999-025BMR", "EPOCH": "2025-12-25T11:56:19.827744", "MEAN_MOTION": 14.1510416, "ECCENTRICITY": 0.0065789, "INCLINATION": 99.0086, "RA_OF_ASC_NODE": 78.8179, "ARG_OF_PERICENTER": 160.9733, "MEAN_ANOMALY": 210.8394, "EPHEMERIS_TYPE": 0, "CLASSIFICATION_TYPE": "U", "NORAD_CAT_ID": 31259, "ELEMENT_SET_NO": 999, "REV_AT_EPOCH": 95750, "BSTAR": 0.0017118, "MEAN_MOTION_DOT": 3.346e-05, "MEAN_MOTION_DDOT": 0}, "tle": {"line1": "1 31259U 99025BMR 25359.49745171  .00003346  00000+0  17118-2 0  9992", "line2": "2 31259  99.0086  78.8179 0065789 160.9733 210.8394 14.15104160957504"}}, "geometry": {"type": "Point", "coordinates": [-93.34561624931384, 37.91178074323885]}}, {"type": "Feature", "properties": {"norad_id": 31260, "name": "FENGYUN 1C DEB", "group": "fengyun-1c-debris", "lat": -2.7861448838686496, "lon": 77.2658741475615, "alt_km": 761.7734857823361, "timestamp": "2025-12-26T05:31:12.788787+00:00", "meta": {"OBJECT_NAME": "FENGYUN 1C DEB", "OBJECT_ID": "1999-025BMS", "EPOCH": "2025-12-24T16:01:52.760928", "MEAN_MOTION": 14.36490974, "ECCENTRICITY": 0.00463688, "INCLINATION": 98.9566, "RA_OF_ASC_NODE": 256.0821, "ARG_OF_PERICENTER": 257.0576, "MEAN_ANOMALY": 132.8353, "EPHEMERIS_TYPE": 0, "CLASSIFICATION_TYPE": "U", "NORAD_CAT_ID": 31260, "ELEMENT_SET_NO": 999, "REV_AT_EPOCH": 97365, "BSTAR": 0.00098697525, "MEAN_MOTION_DOT": 2.885e-05, "MEAN_MOTION_DDOT": 0}, "tle": {"line1": "1 31260U 99025BMS 25358.66797177  .00002885  00000+0  98698-3 0  9995", "line2": "2 31260  98.9566 256.0821 0046368 257.0576 132.8353 14.36490974973652"}}, "geometry": {"type": "Point", "coordinates": [77.2658741475615, -2.7861448838686496]}}, {"type": "Feature", "properties": {"norad_id": 31261, "name": "FENGYUN 1C DEB", "group": "fengyun-1c-debris", "lat": 15.952320576251346, "lon": -48.25362598791409, "alt_km": 794.3332147408755, "timestamp": "2025-12-26T05:31:12.788797+00:00", "meta": {"OBJECT_NAME": "FENGYUN 1C DEB", "OBJECT_ID": "1999-025BMT", "EPOCH": "2025-12-25T14:26:15.686016", "MEAN_MOTION": 14.4015586, "ECCENTRICITY": 0.0050165, "INCLINATION": 99.0168, "RA_OF_ASC_NODE": 313.6864, "ARG_OF_PERICENTER": 194.1826, "MEAN_ANOMALY": 165.7955, "EPHEMERIS_TYPE": 0, "CLASSIFICATION_TYPE": "U", "NORAD_CAT_ID": 31261, "ELEMENT_SET_NO": 999, "REV_AT_EPOCH": 97535, "BSTAR": 0.00095073, "MEAN_MOTION_DOT": 3.001e-05, "MEAN_MOTION_DDOT": 0}, "tle": {"line1": "1 31261U 99025BMT 25359.60157044  .00003001  00000+0  95073-3 0  9999", "line2": "2 31261  99.0168 313.6864 0050165 194.1826 165.7955 14.40155860975358"}}, "geometry": {"type": "Point", "coordinates": [-48.25362598791409, 15.952320576251346]}}, {"type": "Feature", "properties": {"norad_id": 31262, "name": "FENGYUN 1C DEB", "group": "fengyun-1c-debris", "lat": 51.92365076811582, "lon": 72.20177266833531, "alt_km": 787.2729048826586, "timestamp": "2025-12-26T05:31:12.788807+00:00", "meta": {"OBJECT_NAME": "FENGYUN 1C DEB", "OBJECT_ID": "1999-025BMU", "EPOCH": "2025-12-23T04:36:31.658976", "MEAN_MOTION": 14.18250623, "ECCENTRICITY": 0.00545996, "INCLINATION": 99.0016, "RA_OF_ASC_NODE": 80.7949, "ARG_OF_PERICENTER": 68.7564, "MEAN_ANOMALY": 321.7706, "EPHEMERIS_TYPE": 0, "CLASSIFICATION_TYPE": "U", "NORAD_CAT_ID": 31262, "ELEMENT_SET_NO": 999, "REV_AT_EPOCH": 95857, "BSTAR": 0.0016102319, "MEAN_MOTION_DOT": 3.318e-05, "MEAN_MOTION_DDOT": 0}, "tle": {"line1": "1 31262U 99025BMU 25357.19203309  .00003318  00000+0  16102-2 0  9994", "line2": "2 31262  99.0016  80.7949 0054599  68.7564 321.7706 14.18250623958578"}}, "geometry": {"type": "Point", "coordinates": [72.20177266833531, 51.92365076811582]}}, {"type": "Feature", "properties": {"norad_id": 31263, "name": "FENGYUN 1C DEB", "group": "fengyun-1c-debris", "lat": 12.360764910536874, "lon": -73.60985584786516, "alt_km": 67.90770061430976, "timestamp": "2025-12-26T05:31:12.788817+00:00", "meta": {"OBJECT_NAME": "FENGYUN 1C DEB", "OBJECT_ID": "1999-025BMV", "EPOCH": "2025-12-17T17:49:28.390944", "MEAN_MOTION": 15.68261869, "ECCENTRICITY": 0.00247871, "INCLINATION": 98.9827, "RA_OF_ASC_NODE": 277.2526, "ARG_OF_PERICENTER": 119.3199, "MEAN_ANOMALY": 241.0538, "EPHEMERIS_TYPE": 0, "CLASSIFICATION_TYPE": "U", "NORAD_CAT_ID": 31263, "ELEMENT_SET_NO": 999, "REV_AT_EPOCH": 97244, "BSTAR": 0.017261788, "MEAN_MOTION_DOT": 0.02239772, "MEAN_MOTION_DDOT": 0}, "tle": {"line1": "1 31263U 99025BMV 25351.74268971  .02239772  00000+0  17262-1 0  9990", "line2": "2 31263  98.9827 277.2526 0024787 119.3199 241.0538 15.68261869972443"}}, "geometry": {"type": "Point", "coordinates": [-73.60985584786516, 12.360764910536874]}}, {"type": "Feature", "properties": {"norad_id": 31264, "name": "FENGYUN 1C DEB", "group": "fengyun-1c-debris", "lat": 43.40378106432771, "lon": -111.15116221211234, "alt_km": 825.8768736744241, "timestamp": "2025-12-26T05:31:12.788827+00:00", "meta": {"OBJECT_NAME": "FENGYUN 1C DEB", "OBJECT_ID": "1999-025BMW", "EPOCH": "2025-12-24T04:57:05.392224", "MEAN_MOTION": 14.18616159, "ECCENTRICITY": 8.256e-05, "INCLINATION": 99.115, "RA_OF_ASC_NODE": 255.5038, "ARG_OF_PERICENTER": 10.9988, "MEAN_ANOMALY": 143.8476, "EPHEMERIS_TYPE": 0, "CLASSIFICATION_TYPE": "U", "NORAD_CAT_ID": 31264, "ELEMENT_SET_NO": 999, "REV_AT_EPOCH": 96591, "BSTAR": 0.00055145062, "MEAN_MOTION_DOT": 1.096e-05, "MEAN_MOTION_DDOT": 0}, "tle": {"line1": "1 31264U 99025BMW 25358.20631241  .00001096  00000+0  55145-3 0  9991", "line2": "2 31264  99.1150 255.5038 0000825  10.9988 143.8476 14.18616159965916"}}, "geometry": {"type": "Point", "coordinates": [-111.15116221211234, 43.40378106432771]}}, {"type": "Feature", "properties": {"norad_id": 31266, "name": "FENGYUN 1C DEB", "group": "fengyun-1c-debris", "lat": -74.8822495775694, "lon": 126.79643252058376, "alt_km": 733.593906637183, "timestamp": "2025-12-26T05:31:12.788837+00:00", "meta": {"OBJECT_NAME": "FENGYUN 1C DEB", "OBJECT_ID": "1999-025BMY", "EPOCH": "2025-12-25T10:27:52.718112", "MEAN_MOTION": 14.22353417, "ECCENTRICITY": 0.0129504, "INCLINATION": 99.2585, "RA_OF_ASC_NODE": 343.1049, "ARG_OF_PERICENTER": 247.8384, "MEAN_ANOMALY": 266.5124, "EPHEMERIS_TYPE": 0, "CLASSIFICATION_TYPE": "U", "NORAD_CAT_ID": 31266, "ELEMENT_SET_NO": 999, "REV_AT_EPOCH": 97386, "BSTAR": 0.00027861, "MEAN_MOTION_DOT": 6.26e-06, "MEAN_MOTION_DDOT": 0}, "tle": {"line1": "1 31266U 99025BMY 25359.43602683  .00000626  00000+0  27861-3 0  9999", "line2": "2 31266  99.2585 343.1049 0129504 247.8384 266.5124 14.22353417973860"}}, "geometry": {"type": "Point", "coordinates": [126.79643252058376, -74.8822495775694]}}]}